{
  "type": "FeatureCollection",
  "features": [
    {
      "type": "Feature",
      "properties": {
        "norad_id": 30739,
        "name": "FENGYUN 1C DEB",
        "group": "fengyun-1c-debris",
        "lat": -24.014296116446207,
        "lon": 164.44603363153354,
        "alt_km": 822.5762132921163,
        "timestamp": "2025-12-27T14:26:30.800229+00:00",
        "meta_object_name": "FENGYUN 1C DEB",
        "meta_object_id": "1999-025ASZ",
        "meta_epoch": "2025-12-27T05:03:23.690304",
        "meta_mean_motion": 14.14976642,
        "meta_eccentricity": 0.01001029,
        "meta_inclination": 98.6937,
        "meta_ra_of_asc_node": 347.9738,
        "meta_arg_of_pericenter": 275.4021,
        "meta_mean_anomaly": 98.9923,
        "meta_ephemeris_type": 0,
        "meta_classification_type": "U",
        "meta_norad_cat_id": 30739,
        "meta_element_set_no": 999,
        "meta_rev_at_epoch": 97068,
        "meta_bstar": 0.00042463341,
        "meta_mean_motion_dot": 8.18e-06,
        "meta_mean_motion_ddot": 0,
        "tle_line1": "1 30739U 99025ASZ 25361.21069086  .00000818  00000+0  42463-3 0  9994",
        "tle_line2": "2 30739  98.6937 347.9738 0100102 275.4021  98.9923 14.14976642970686"
      },
      "geometry": {
        "type": "Point",
        "coordinates": [
          164.44603363153354,
          -24.014296116446207
        ]
      }
    },
    {
      "type": "Feature",
      "properties": {
        "norad_id": 30740,
        "name": "FENGYUN 1C DEB",
        "group": "fengyun-1c-debris",
        "lat": 43.467118808864605,
        "lon": 98.88283207729802,
        "alt_km": 700.156444869569,
        "timestamp": "2025-12-27T14:26:30.800239+00:00",
        "meta_object_name": "FENGYUN 1C DEB",
        "meta_object_id": "1999-025ATA",
        "meta_epoch": "2025-12-26T18:23:46.711968",
        "meta_mean_motion": 14.52184449,
        "meta_eccentricity": 0.00304869,
        "meta_inclination": 98.688,
        "meta_ra_of_asc_node": 106.3526,
        "meta_arg_of_pericenter": 94.1968,
        "meta_mean_anomaly": 266.2711,
        "meta_ephemeris_type": 0,
        "meta_classification_type": "U",
        "meta_norad_cat_id": 30740,
        "meta_element_set_no": 999,
        "meta_rev_at_epoch": 97851,
        "meta_bstar": 0.0024641347,
        "meta_mean_motion_dot": 0.00010018,
        "meta_mean_motion_ddot": 0,
        "tle_line1": "1 30740U 99025ATA 25360.76651287  .00010018  00000+0  24641-2 0  9995",
        "tle_line2": "2 30740  98.6880 106.3526 0030486  94.1968 266.2711 14.52184449978513"
      },
      "geometry": {
        "type": "Point",
        "coordinates": [
          98.88283207729802,
          43.467118808864605
        ]
      }
    },
    {
      "type": "Feature",
      "properties": {
        "norad_id": 30741,
        "name": "FENGYUN 1C DEB",
        "group": "fengyun-1c-debris",
        "lat": 1.0491584772742608,
        "lon": 10.260704573965796,
        "alt_km": 850.0694361771202,
        "timestamp": "2025-12-27T14:26:30.800250+00:00",
        "meta_object_name": "FENGYUN 1C DEB",
        "meta_object_id": "1999-025ATB",
        "meta_epoch": "2025-12-26T16:40:26.247072",
        "meta_mean_motion": 14.13242556,
        "meta_eccentricity": 0.00072032,
        "meta_inclination": 98.6792,
        "meta_ra_of_asc_node": 9.5414,
        "meta_arg_of_pericenter": 82.7992,
        "meta_mean_anomaly": 346.5402,
        "meta_ephemeris_type": 0,
        "meta_classification_type": "U",
        "meta_norad_cat_id": 30741,
        "meta_element_set_no": 999,
        "meta_rev_at_epoch": 97016,
        "meta_bstar": 0.00016219731,
        "meta_mean_motion_dot": 2.61e-06,
        "meta_mean_motion_ddot": 0,
        "tle_line1": "1 30741U 99025ATB 25360.69474823  .00000261  00000+0  16220-3 0  9991",
        "tle_line2": "2 30741  98.6792   9.5414 0007203  82.7992 346.5402 14.13242556970160"
      },
      "geometry": {
        "type": "Point",
        "coordinates": [
          10.260704573965796,
          1.0491584772742608
        ]
      }
    },
    {
      "type": "Feature",
      "properties": {
        "norad_id": 30742,
        "name": "FENGYUN 1C DEB",
        "group": "fengyun-1c-debris",
        "lat": -28.739659791765405,
        "lon": -139.08157350437168,
        "alt_km": 816.0439282810003,
        "timestamp": "2025-12-27T14:26:30.800260+00:00",
        "meta_object_name": "FENGYUN 1C DEB",
        "meta_object_id": "1999-025ATC",
        "meta_epoch": "2025-12-26T15:55:02.011008",
        "meta_mean_motion": 14.10438621,
        "meta_eccentricity": 0.00717407,
        "meta_inclination": 98.8669,
        "meta_ra_of_asc_node": 44.9037,
        "meta_arg_of_pericenter": 187.9651,
        "meta_mean_anomaly": 297.9112,
        "meta_ephemeris_type": 0,
        "meta_classification_type": "U",
        "meta_norad_cat_id": 30742,
        "meta_element_set_no": 999,
        "meta_rev_at_epoch": 96238,
        "meta_bstar": 0.0015125107,
        "meta_mean_motion_dot": 2.712e-05,
        "meta_mean_motion_ddot": 0,
        "tle_line1": "1 30742U 99025ATC 25360.66321772  .00002712  00000+0  15125-2 0  9998",
        "tle_line2": "2 30742  98.8669  44.9037 0071740 187.9651 297.9112 14.10438621962386"
      },
      "geometry": {
        "type": "Point",
        "coordinates": [
          -139.08157350437168,
          -28.739659791765405
        ]
      }
    },
    {
      "type": "Feature",
      "properties": {
        "norad_id": 30744,
        "name": "FENGYUN 1C DEB",
        "group": "fengyun-1c-debris",
        "lat": -79.11745693180187,
        "lon": -157.70710038378473,
        "alt_km": 596.8645468800141,
        "timestamp": "2025-12-27T14:26:30.800271+00:00",
        "meta_object_name": "FENGYUN 1C DEB",
        "meta_object_id": "1999-025ATE",
        "meta_epoch": "2025-12-26T21:40:31.447200",
        "meta_mean_motion": 14.90768713,
        "meta_eccentricity": 0.001015,
        "meta_inclination": 98.7273,
        "meta_ra_of_asc_node": 148.4852,
        "meta_arg_of_pericenter": 242.7991,
        "meta_mean_anomaly": 246.571,
        "meta_ephemeris_type": 0,
        "meta_classification_type": "U",
        "meta_norad_cat_id": 30744,
        "meta_element_set_no": 999,
        "meta_rev_at_epoch": 98299,
        "meta_bstar": 0.0060948,
        "meta_mean_motion_dot": 0.00060401,
        "meta_mean_motion_ddot": 0,
        "tle_line1": "1 30744U 99025ATE 25360.90314175  .00060401  00000+0  60948-2 0  9998",
        "tle_line2": "2 30744  98.7273 148.4852 0010150 242.7991 246.5710 14.90768713982997"
      },
      "geometry": {
        "type": "Point",
        "coordinates": [
          -157.70710038378473,
          -79.11745693180187
        ]
      }
    },
    {
      "type": "Feature",
      "properties": {
        "norad_id": 30746,
        "name": "FENGYUN 1C DEB",
        "group": "fengyun-1c-debris",
        "lat": 19.762679343494234,
        "lon": 179.44690381389717,
        "alt_km": 808.4782419564117,
        "timestamp": "2025-12-27T14:26:30.800281+00:00",
        "meta_object_name": "FENGYUN 1C DEB",
        "meta_object_id": "1999-025ATG",
        "meta_epoch": "2025-12-26T18:43:57.621792",
        "meta_mean_motion": 14.27546471,
        "meta_eccentricity": 0.00459977,
        "meta_inclination": 99.0574,
        "meta_ra_of_asc_node": 181.8818,
        "meta_arg_of_pericenter": 277.3152,
        "meta_mean_anomaly": 204.2995,
        "meta_ephemeris_type": 0,
        "meta_classification_type": "U",
        "meta_norad_cat_id": 30746,
        "meta_element_set_no": 999,
        "meta_rev_at_epoch": 97646,
        "meta_bstar": 0.00048362527,
        "meta_mean_motion_dot": 1.155e-05,
        "meta_mean_motion_ddot": 0,
        "tle_line1": "1 30746U 99025ATG 25360.78052803  .00001155  00000+0  48363-3 0  9992",
        "tle_line2": "2 30746  99.0574 181.8818 0045997 277.3152 204.2995 14.27546471976466"
      },
      "geometry": {
        "type": "Point",
        "coordinates": [
          179.44690381389717,
          19.762679343494234
        ]
      }
    },
    {
      "type": "Feature",
      "properties": {
        "norad_id": 30749,
        "name": "FENGYUN 1C DEB",
        "group": "fengyun-1c-debris",
        "lat": -22.499476288422056,
        "lon": 31.692700690409758,
        "alt_km": 933.6868117407193,
        "timestamp": "2025-12-27T14:26:30.800291+00:00",
        "meta_object_name": "FENGYUN 1C DEB",
        "meta_object_id": "1999-025ATK",
        "meta_epoch": "2025-12-26T07:40:25.506624",
        "meta_mean_motion": 13.99838309,
        "meta_eccentricity": 0.0056492,
        "meta_inclination": 98.8855,
        "meta_ra_of_asc_node": 26.7329,
        "meta_arg_of_pericenter": 194.7869,
        "meta_mean_anomaly": 165.1646,
        "meta_ephemeris_type": 0,
        "meta_classification_type": "U",
        "meta_norad_cat_id": 30749,
        "meta_element_set_no": 999,
        "meta_rev_at_epoch": 96156,
        "meta_bstar": -5.6431e-05,
        "meta_mean_motion_dot": -1.27e-06,
        "meta_mean_motion_ddot": 0,
        "tle_line1": "1 30749U 99025ATK 25360.31973966 -.00000127  00000+0 -56431-4 0  9992",
        "tle_line2": "2 30749  98.8855  26.7329 0056492 194.7869 165.1646 13.99838309961566"
      },
      "geometry": {
        "type": "Point",
        "coordinates": [
          31.692700690409758,
          -22.499476288422056
        ]
      }
    }
  ]
}